{
  "norad_id": 67242,
  "name": "HULIANWANG DIGUI-134",
  "history": [
    {
      "epoch": "2026-03-28T22:17:10.919040Z",
      "apogee_km": 1149.5212687763096,
      "perigee_km": 1149.0441809141494,
      "latitude_deg": 1.394540886452948e-05,
      "longitude_deg": -117.01908884276364,
      "height_km": 1149.6143359330752,
      "semi_major_axis_km": 7527.419724845229,
      "eccentricity": 3.169e-05,
      "inclination_deg": 50.0049,
      "raan_deg": 43.6184,
      "arg_perigee_deg": 42.9545,
      "mean_anomaly_deg": 317.1352,
      "mean_motion_rev_day": 13.29332317
    },
    {
      "epoch": "2026-03-29T03:41:57.339168Z",
      "apogee_km": 1149.521117541065,
      "perigee_km": 1149.0438791448705,
      "latitude_deg": -2.4013890994233497e-05,
      "longitude_deg": 160.7562626466282,
      "height_km": 1149.6170740897871,
      "semi_major_axis_km": 7527.419498342967,
      "eccentricity": 3.17e-05,
      "inclination_deg": 50.005,
      "raan_deg": 42.8095,
      "arg_perigee_deg": 44.0048,
      "mean_anomaly_deg": 316.0849,
      "mean_motion_rev_day": 13.29332377
    },
    {
      "epoch": "2026-03-30T03:09:18.507744Z",
      "apogee_km": 1149.53254606071,
      "perigee_km": 1149.0312199631026,
      "latitude_deg": 6.0976839091050894e-05,
      "longitude_deg": 164.4496329989319,
      "height_km": 1149.6187000776163,
      "semi_major_axis_km": 7527.4188830119065,
      "eccentricity": 3.33e-05,
      "inclination_deg": 50.0053,
      "raan_deg": 39.3043,
      "arg_perigee_deg": 47.4887,
      "mean_anomaly_deg": 312.6014,
      "mean_motion_rev_day": 13.2933254
    },
    {
      "epoch": "2026-03-30T04:57:33.982848Z",
      "apogee_km": 1149.5347778602309,
      "perigee_km": 1149.0289353130684,
      "latitude_deg": 2.9972518828288725e-05,
      "longitude_deg": 137.04142769533362,
      "height_km": 1149.6182214087346,
      "semi_major_axis_km": 7527.418856586649,
      "eccentricity": 3.36e-05,
      "inclination_deg": 50.0053,
      "raan_deg": 39.0347,
      "arg_perigee_deg": 47.8178,
      "mean_anomaly_deg": 312.2723,
      "mean_motion_rev_day": 13.29332547
    },
    {
      "epoch": "2026-03-30T04:57:33.983712Z",
      "apogee_km": 1149.5350789569848,
      "perigee_km": 1149.0286342163135,
      "latitude_deg": 2.7358923912952256e-05,
      "longitude_deg": 137.0414219039887,
      "height_km": 1149.6180192340194,
      "semi_major_axis_km": 7527.418856586649,
      "eccentricity": 3.364e-05,
      "inclination_deg": 50.0053,
      "raan_deg": 39.0347,
      "arg_perigee_deg": 47.8178,
      "mean_anomaly_deg": 312.2723,
      "mean_motion_rev_day": 13.29332547
    },
    {
      "epoch": "2026-03-30T21:11:53.245824Z",
      "apogee_km": 1149.5412203225223,
      "perigee_km": 1149.0218284443408,
      "latitude_deg": -3.015765495371823e-05,
      "longitude_deg": -109.63238317267722,
      "height_km": 1149.6209878535278,
      "semi_major_axis_km": 7527.418524383432,
      "eccentricity": 3.45e-05,
      "inclination_deg": 50.0054,
      "raan_deg": 36.6081,
      "arg_perigee_deg": 50.0559,
      "mean_anomaly_deg": 310.0343,
      "mean_motion_rev_day": 13.29332635
    },
    {
      "epoch": "2026-03-31T20:39:14.397984Z",
      "apogee_km": 1149.5580954648303,
      "perigee_km": 1149.004077493666,
      "latitude_deg": -2.948448696147645e-05,
      "longitude_deg": -105.93901384919677,
      "height_km": 1149.6260949413931,
      "semi_major_axis_km": 7527.418086479248,
      "eccentricity": 3.68e-05,
      "inclination_deg": 50.0055,
      "raan_deg": 33.1029,
      "arg_perigee_deg": 54.4241,
      "mean_anomaly_deg": 305.6665,
      "mean_motion_rev_day": 13.29332751
    },
    {
      "epoch": "2026-04-01T20:06:35.542368Z",
      "apogee_km": 1149.565339744544,
      "perigee_km": 1148.9962669586102,
      "latitude_deg": 2.1901103211001268e-05,
      "longitude_deg": -102.24546982353895,
      "height_km": 1149.635066067413,
      "semi_major_axis_km": 7527.417803351576,
      "eccentricity": 3.78e-05,
      "inclination_deg": 50.0056,
      "raan_deg": 29.5978,
      "arg_perigee_deg": 57.7381,
      "mean_anomaly_deg": 302.3528,
      "mean_motion_rev_day": 13.29332826
    },
    {
      "epoch": "2026-04-02T19:33:56.689344Z",
      "apogee_km": 1149.5741388140623,
      "perigee_km": 1148.9871507861217,
      "latitude_deg": -2.4598391039857346e-05,
      "longitude_deg": -98.55221878814226,
      "height_km": 1149.646295625605,
      "semi_major_axis_km": 7527.417644800092,
      "eccentricity": 3.899e-05,
      "inclination_deg": 50.0057,
      "raan_deg": 26.0925,
      "arg_perigee_deg": 61.4022,
      "mean_anomaly_deg": 298.6889,
      "mean_motion_rev_day": 13.29332868
    },
    {
      "epoch": "2026-04-03T20:49:33.295008Z",
      "apogee_km": 1149.5825901069456,
      "perigee_km": 1148.9773857811151,
      "latitude_deg": 9.051590541828163e-06,
      "longitude_deg": -122.26691248542153,
      "height_km": 1149.6587503735452,
      "semi_major_axis_km": 7527.416987944031,
      "eccentricity": 4.02e-05,
      "inclination_deg": 50.0058,
      "raan_deg": 22.3177,
      "arg_perigee_deg": 65.1118,
      "mean_anomaly_deg": 294.9796,
      "mean_motion_rev_day": 13.29333042
    },
    {
      "epoch": "2026-04-04T20:16:54.429888Z",
      "apogee_km": 1149.598738928149,
      "perigee_km": 1148.960414002464,
      "latitude_deg": -3.1035923038304986e-05,
      "longitude_deg": -118.57330714216151,
      "height_km": 1149.6703463796052,
      "semi_major_axis_km": 7527.416576465306,
      "eccentricity": 4.24e-05,
      "inclination_deg": 50.0059,
      "raan_deg": 18.8127,
      "arg_perigee_deg": 68.8186,
      "mean_anomaly_deg": 291.2731,
      "mean_motion_rev_day": 13.29333151
    },
    {
      "epoch": "2026-04-05T05:18:11.789856Z",
      "apogee_km": 1149.6067925745047,
      "perigee_km": 1148.9519073520578,
      "latitude_deg": 2.6443693262839216e-06,
      "longitude_deg": 104.38578784295913,
      "height_km": 1149.6738706338658,
      "semi_major_axis_km": 7527.4163499632805,
      "eccentricity": 4.35e-05,
      "inclination_deg": 50.006,
      "raan_deg": 17.4646,
      "arg_perigee_deg": 70.0807,
      "mean_anomaly_deg": 290.0112,
      "mean_motion_rev_day": 13.29333211
    },
    {
      "epoch": "2026-04-05T19:44:15.557856Z",
      "apogee_km": 1149.6118050523273,
      "perigee_km": 1148.9463814696828,
      "latitude_deg": 4.046175728945072e-05,
      "longitude_deg": -114.87968059241213,
      "height_km": 1149.6864961925046,
      "semi_major_axis_km": 7527.416093261005,
      "eccentricity": 4.42e-05,
      "inclination_deg": 50.006,
      "raan_deg": 15.3076,
      "arg_perigee_deg": 72.7515,
      "mean_anomaly_deg": 287.3406,
      "mean_motion_rev_day": 13.29333279
    },
    {
      "epoch": "2026-04-06T02:57:17.442720Z",
      "apogee_km": 1149.6169871840357,
      "perigee_km": 1148.9408746851204,
      "latitude_deg": 3.941071090518625e-05,
      "longitude_deg": 135.48756483556707,
      "height_km": 1149.689854653755,
      "semi_major_axis_km": 7527.415930934578,
      "eccentricity": 4.491e-05,
      "inclination_deg": 50.0061,
      "raan_deg": 14.2291,
      "arg_perigee_deg": 73.6555,
      "mean_anomaly_deg": 286.4367,
      "mean_motion_rev_day": 13.29333322
    },
    {
      "epoch": "2026-04-07T18:38:57.778368Z",
      "apogee_km": 1149.6229541943412,
      "perigee_km": 1148.9334429621513,
      "latitude_deg": -4.127892592654472e-05,
      "longitude_deg": -107.49246890197077,
      "height_km": 1149.7153807779669,
      "semi_major_axis_km": 7527.4151985782455,
      "eccentricity": 4.58e-05,
      "inclination_deg": 50.0061,
      "raan_deg": 8.2974,
      "arg_perigee_deg": 78.478,
      "mean_anomaly_deg": 281.6143,
      "mean_motion_rev_day": 13.29333516
    },
    {
      "epoch": "2026-04-08T10:53:17.001600Z",
      "apogee_km": 1149.6321296303822,
      "perigee_km": 1148.9239504234156,
      "latitude_deg": -2.6452126776647584e-05,
      "longitude_deg": 5.834046010730821,
      "height_km": 1149.728257767911,
      "semi_major_axis_km": 7527.415040026898,
      "eccentricity": 4.704e-05,
      "inclination_deg": 50.0061,
      "raan_deg": 5.8709,
      "arg_perigee_deg": 80.9322,
      "mean_anomaly_deg": 279.1603,
      "mean_motion_rev_day": 13.29333558
    },
    {
      "epoch": "2026-04-09T10:20:38.090688Z",
      "apogee_km": 1149.6436562899517,
      "perigee_km": 1148.9113894051698,
      "latitude_deg": 3.3489648630426575e-05,
      "longitude_deg": 9.527924038285356,
      "height_km": 1149.7463374832705,
      "semi_major_axis_km": 7527.414522847561,
      "eccentricity": 4.864e-05,
      "inclination_deg": 50.006,
      "raan_deg": 2.3659,
      "arg_perigee_deg": 84.1739,
      "mean_anomaly_deg": 275.9189,
      "mean_motion_rev_day": 13.29333695
    },
    {
      "epoch": "2026-04-10T09:47:59.184096Z",
      "apogee_km": 1149.6665391693368,
      "perigee_km": 1148.8882045232876,
      "latitude_deg": -2.5581664157002003e-05,
      "longitude_deg": 13.221584993929032,
      "height_km": 1149.7704552323105,
      "semi_major_axis_km": 7527.414371846312,
      "eccentricity": 5.17e-05,
      "inclination_deg": 50.006,
      "raan_deg": 358.8608,
      "arg_perigee_deg": 88.1057,
      "mean_anomaly_deg": 271.9874,
      "mean_motion_rev_day": 13.29333735
    },
    {
      "epoch": "2026-04-11T09:15:20.270592Z",
      "apogee_km": 1149.6768095080251,
      "perigee_km": 1148.8773981302002,
      "latitude_deg": 3.2960352330438828e-06,
      "longitude_deg": 16.915448852522577,
      "height_km": 1149.7913568070128,
      "semi_major_axis_km": 7527.414103819113,
      "eccentricity": 5.31e-05,
      "inclination_deg": 50.0058,
      "raan_deg": 355.3558,
      "arg_perigee_deg": 91.1967,
      "mean_anomaly_deg": 268.8966,
      "mean_motion_rev_day": 13.29333806
    }
  ]
}